{
  "type": "FeatureCollection",
  "features": [
    {
      "type": "Feature",
      "properties": {
        "norad_id": 43207,
        "name": "BEIDOU-3 M4 (C22)",
        "group": "beidou",
        "lat": 29.42435341353056,
        "lon": -132.8453475062723,
        "alt_km": 21533.072288371382,
        "timestamp": "2025-12-20T14:38:02.235242+00:00",
        "meta_object_name": "BEIDOU-3 M4 (C22)",
        "meta_object_id": "2018-018A",
        "meta_epoch": "2025-12-18T05:56:14.155584",
        "meta_mean_motion": 1.86231297,
        "meta_eccentricity": 0.0004163,
        "meta_inclination": 56.4903,
        "meta_ra_of_asc_node": 69.1221,
        "meta_arg_of_pericenter": 6.0826,
        "meta_mean_anomaly": 353.9513,
        "meta_ephemeris_type": 0,
        "meta_classification_type": "U",
        "meta_norad_cat_id": 43207,
        "meta_element_set_no": 999,
        "meta_rev_at_epoch": 5337,
        "meta_bstar": 0,
        "meta_mean_motion_dot": -6.5e-07,
        "meta_mean_motion_ddot": 0,
        "tle_line1": "1 43207U 18018A   25352.24738606 -.00000065  00000+0  00000+0 0  9997",
        "tle_line2": "2 43207  56.4903  69.1221 0004163   6.0826 353.9513  1.86231297 53378"
      },
      "geometry": {
        "type": "Point",
        "coordinates": [
          -132.8453475062723,
          29.42435341353056
        ]
      }
    },
    {
      "type": "Feature",
      "properties": {
        "norad_id": 43208,
        "name": "BEIDOU-3 M3 (C21)",
        "group": "beidou",
        "lat": 55.40344809467219,
        "lon": 175.52168203308895,
        "alt_km": 21537.72906253051,
        "timestamp": "2025-12-20T14:38:02.235253+00:00",
        "meta_object_name": "BEIDOU-3 M3 (C21)",
        "meta_object_id": "2018-018B",
        "meta_epoch": "2025-12-19T09:18:26.987040",
        "meta_mean_motion": 1.8623146,
        "meta_eccentricity": 0.0007021,
        "meta_inclination": 56.4904,
        "meta_ra_of_asc_node": 69.0885,
        "meta_arg_of_pericenter": 313.7803,
        "meta_mean_anomaly": 46.1968,
        "meta_ephemeris_type": 0,
        "meta_classification_type": "U",
        "meta_norad_cat_id": 43208,
        "meta_element_set_no": 999,
        "meta_rev_at_epoch": 5339,
        "meta_bstar": 0,
        "meta_mean_motion_dot": -5.3e-07,
        "meta_mean_motion_ddot": 0,
        "tle_line1": "1 43208U 18018B   25353.38781235 -.00000053  00000+0  00000+0 0  9997",
        "tle_line2": "2 43208  56.4904  69.0885 0007021 313.7803  46.1968  1.86231460 53393"
      },
      "geometry": {
        "type": "Point",
        "coordinates": [
          175.52168203308895,
          55.40344809467219
        ]
      }
    },
    {
      "type": "Feature",
      "properties": {
        "norad_id": 43245,
        "name": "BEIDOU-3 M9 (C29)",
        "group": "beidou",
        "lat": -35.60223608850184,
        "lon": -84.70598840165539,
        "alt_km": 21528.744487510015,
        "timestamp": "2025-12-20T14:38:02.235264+00:00",
        "meta_object_name": "BEIDOU-3 M9 (C29)",
        "meta_object_id": "2018-029A",
        "meta_epoch": "2025-12-19T14:29:50.131680",
        "meta_mean_motion": 1.86228397,
        "meta_eccentricity": 0.00015252,
        "meta_inclination": 54.3596,
        "meta_ra_of_asc_node": 306.2287,
        "meta_arg_of_pericenter": 290.8433,
        "meta_mean_anomaly": 69.1316,
        "meta_ephemeris_type": 0,
        "meta_classification_type": "U",
        "meta_norad_cat_id": 43245,
        "meta_element_set_no": 999,
        "meta_rev_at_epoch": 5255,
        "meta_bstar": 0,
        "meta_mean_motion_dot": -7.4e-07,
        "meta_mean_motion_ddot": 0,
        "tle_line1": "1 43245U 18029A   25353.60405245 -.00000074  00000+0  00000+0 0  9992",
        "tle_line2": "2 43245  54.3596 306.2287 0001525 290.8433  69.1316  1.86228397 52551"
      },
      "geometry": {
        "type": "Point",
        "coordinates": [
          -84.70598840165539,
          -35.60223608850184
        ]
      }
    },
    {
      "type": "Feature",
      "properties": {
        "norad_id": 43246,
        "name": "BEIDOU-3 M10 (C30)",
        "group": "beidou",
        "lat": -1.8806982306932774,
        "lon": -55.15245424019554,
        "alt_km": 21516.96677619222,
        "timestamp": "2025-12-20T14:38:02.235276+00:00",
        "meta_object_name": "BEIDOU-3 M10 (C30)",
        "meta_object_id": "2018-029B",
        "meta_epoch": "2025-12-20T01:49:46.851744",
        "meta_mean_motion": 1.86229182,
        "meta_eccentricity": 0.00042418,
        "meta_inclination": 54.356,
        "meta_ra_of_asc_node": 306.2386,
        "meta_arg_of_pericenter": 3.4474,
        "meta_mean_anomaly": 356.548,
        "meta_ephemeris_type": 0,
        "meta_classification_type": "U",
        "meta_norad_cat_id": 43246,
        "meta_element_set_no": 999,
        "meta_rev_at_epoch": 5254,
        "meta_bstar": 0,
        "meta_mean_motion_dot": -7e-07,
        "meta_mean_motion_ddot": 0,
        "tle_line1": "1 43246U 18029B   25354.07623671 -.00000070  00000+0  00000+0 0  9996",
        "tle_line2": "2 43246  54.3560 306.2386 0004241   3.4474 356.5480  1.86229182 52541"
      },
      "geometry": {
        "type": "Point",
        "coordinates": [
          -55.15245424019554,
          -1.8806982306932774
        ]
      }
    },
    {
      "type": "Feature",
      "properties": {
        "norad_id": 43539,
        "name": "BEIDOU-2 IGSO-7 (C16)",
        "group": "beidou",
        "lat": -52.46211990126955,
        "lon": 49.73394798768603,
        "alt_km": 35429.131685926666,
        "timestamp": "2025-12-20T14:38:02.235287+00:00",
        "meta_object_name": "BEIDOU-2 IGSO-7 (C16)",
        "meta_object_id": "2018-057A",
        "meta_epoch": "2025-12-15T07:47:07.120608",
        "meta_mean_motion": 1.00256546,
        "meta_eccentricity": 0.00926218,
        "meta_inclination": 55.1766,
        "meta_ra_of_asc_node": 164.6485,
        "meta_arg_of_pericenter": 235.2644,
        "meta_mean_anomaly": 271.8458,
        "meta_ephemeris_type": 0,
        "meta_classification_type": "U",
        "meta_norad_cat_id": 43539,
        "meta_element_set_no": 999,
        "meta_rev_at_epoch": 2728,
        "meta_bstar": 0,
        "meta_mean_motion_dot": -2.3e-07,
        "meta_mean_motion_ddot": 0,
        "tle_line1": "1 43539U 18057A   25349.32438797 -.00000023  00000+0  00000+0 0  9995",
        "tle_line2": "2 43539  55.1766 164.6485 0092621 235.2644 271.8458  1.00256546 27289"
      },
      "geometry": {
        "type": "Point",
        "coordinates": [
          49.73394798768603,
          -52.46211990126955
        ]
      }
    },
    {
      "type": "Feature",
      "properties": {
        "norad_id": 43581,
        "name": "BEIDOU-3 M5 (C23)",
        "group": "beidou",
        "lat": -21.658136381726447,
        "lon": 25.115306189291594,
        "alt_km": 21536.146755572026,
        "timestamp": "2025-12-20T14:38:02.235300+00:00",
        "meta_object_name": "BEIDOU-3 M5 (C23)",
        "meta_object_id": "2018-062A",
        "meta_epoch": "2025-12-19T18:20:03.145056",
        "meta_mean_motion": 1.86228947,
        "meta_eccentricity": 0.0001999,
        "meta_inclination": 54.0898,
        "meta_ra_of_asc_node": 188.4043,
        "meta_arg_of_pericenter": 0.4472,
        "meta_mean_anomaly": 359.6122,
        "meta_ephemeris_type": 0,
        "meta_classification_type": "U",
        "meta_norad_cat_id": 43581,
        "meta_element_set_no": 999,
        "meta_rev_at_epoch": 5029,
        "meta_bstar": 0,
        "meta_mean_motion_dot": 1e-06,
        "meta_mean_motion_ddot": 0,
        "tle_line1": "1 43581U 18062A   25353.76392529  .00000100  00000+0  00000+0 0  9998",
        "tle_line2": "2 43581  54.0898 188.4043 0001999   0.4472 359.6122  1.86228947 50291"
      },
      "geometry": {
        "type": "Point",
        "coordinates": [
          25.115306189291594,
          -21.658136381726447
        ]
      }
    },
    {
      "type": "Feature",
      "properties": {
        "norad_id": 43582,
        "name": "BEIDOU-3 M6 (C24)",
        "group": "beidou",
        "lat": -45.12780447653195,
        "lon": 141.6231777319798,
        "alt_km": 21540.390768804704,
        "timestamp": "2025-12-20T14:38:02.235311+00:00",
        "meta_object_name": "BEIDOU-3 M6 (C24)",
        "meta_object_id": "2018-062B",
        "meta_epoch": "2025-12-19T02:09:37.044576",
        "meta_mean_motion": 1.86229981,
        "meta_eccentricity": 0.0007838,
        "meta_inclination": 54.0893,
        "meta_ra_of_asc_node": 188.4162,
        "meta_arg_of_pericenter": 47.7681,
        "meta_mean_anomaly": 312.3611,
        "meta_ephemeris_type": 0,
        "meta_classification_type": "U",
        "meta_norad_cat_id": 43582,
        "meta_element_set_no": 999,
        "meta_rev_at_epoch": 5028,
        "meta_bstar": 0,
        "meta_mean_motion_dot": 1.04e-06,
        "meta_mean_motion_ddot": 0,
        "tle_line1": "1 43582U 18062B   25353.09001209  .00000104  00000+0  00000+0 0  9991",
        "tle_line2": "2 43582  54.0893 188.4162 0007838  47.7681 312.3611  1.86229981 50280"
      },
      "geometry": {
        "type": "Point",
        "coordinates": [
          141.6231777319798,
          -45.12780447653195
        ]
      }
    }
  ]
}